[{"OBJECT_NAME":"STARLINK-31762","OBJECT_ID":"2024-080P","EPOCH":"2026-03-09T23:13:29.626464","MEAN_MOTION":15.27564601,"ECCENTRICITY":0.00013225,"INCLINATION":43.004,"RA_OF_ASC_NODE":36.4679,"ARG_OF_PERICENTER":264.2602,"MEAN_ANOMALY":95.8099,"EPHEMERIS_TYPE":0,"CLASSIFICATION_TYPE":"U","NORAD_CAT_ID":59614,"ELEMENT_SET_NO":999,"REV_AT_EPOCH":10457,"BSTAR":-0.000112403,"MEAN_MOTION_DOT":-3.352e-5,"MEAN_MOTION_DDOT":0},{"OBJECT_NAME":"FLOCK 4G-5","OBJECT_ID":"2025-009BG","EPOCH":"2026-03-09T10:57:11.608704","MEAN_MOTION":15.28679529,"ECCENTRICITY":0.00020946,"INCLINATION":97.4058,"RA_OF_ASC_NODE":151.2478,"ARG_OF_PERICENTER":314.5072,"MEAN_ANOMALY":45.5996,"EPHEMERIS_TYPE":0,"CLASSIFICATION_TYPE":"U","NORAD_CAT_ID":62663,"ELEMENT_SET_NO":999,"REV_AT_EPOCH":6369,"BSTAR":0.00040688068,"MEAN_MOTION_DOT":0.00011278,"MEAN_MOTION_DDOT":0}]
